STARLINK-1820
1 46717U 20073AZ  26092.88630802  .02044419  48229-2  13667-2 0  9997
2 46717  53.0299  37.7002 0002958 173.8430 186.2644 16.17472424302110
